<?xml version="1.0" encoding="UTF-8"?>
<kml xmlns="http://www.opengis.net/kml/2.2">
  <Document>
    <name>Trazo de ejemplo SIGOV</name>
    <Placemark>
      <name>Tramo de ejemplo - Panamericana Norte</name>
      <LineString>
        <tessellate>1</tessellate>
        <coordinates>
          -77.789000,-10.670150,0 -77.787767,-10.669103,0 -77.786501,-10.668065,0 -77.785205,-10.667041,0 -77.783882,-10.666037,0 -77.782534,-10.665055,0 -77.781165,-10.664101,0 -77.779782,-10.663176,0 -77.778387,-10.662280,0 -77.776988,-10.661414,0 -77.775589,-10.660577,0 -77.774195,-10.659765,0 -77.772814,-10.658975,0 -77.771448,-10.658204,0 -77.770103,-10.657445,0 -77.768784,-10.656694,0 -77.767492,-10.655944,0 -77.766232,-10.655189,0 -77.765003,-10.654423,0 -77.763808,-10.653642,0 -77.762647,-10.652840,0 -77.761517,-10.652013,0 -77.760417,-10.651159,0 -77.759345,-10.650276,0 -77.758296,-10.649363,0 -77.757267,-10.648421,0 -77.756253,-10.647450,0 -77.755248,-10.646455,0 -77.754248,-10.645439,0 -77.753246,-10.644406,0 -77.752238,-10.643362,0 -77.751218,-10.642312,0 -77.750181,-10.641263,0 -77.749122,-10.640221,0 -77.748037,-10.639190,0 -77.746924,-10.638177,0 -77.745780,-10.637186,0 -77.744604,-10.636220,0 -77.743393,-10.635283,0 -77.742150,-10.634375,0 -77.740876,-10.633496,0 -77.739571,-10.632647,0 -77.738240,-10.631825,0 -77.736885,-10.631027,0 -77.735512,-10.630249,0 -77.734124,-10.629485,0 -77.732727,-10.628732,0 -77.731328,-10.627981,0 -77.729930,-10.627229,0 -77.728539,-10.626469,0 -77.727162,-10.625695,0 -77.725802,-10.624902,0 -77.724465,-10.624086,0 -77.723153,-10.623244,0 -77.721871,-10.622373,0 -77.720620,-10.621472,0 -77.719401,-10.620542,0 -77.718216,-10.619583,0 -77.717064,-10.618597,0 -77.715944,-10.617589,0
        </coordinates>
      </LineString>
    </Placemark>
  </Document>
</kml>
